ONEWEB-0665             
1 55825U 23029AF  25342.94003071  .00000114  00000+0  27212-3 0  9993
2 55825  87.8983 327.6384 0002066  84.0466 276.0899 13.14504552134419
ONEWEB-0666             
1 55826U 23029AG  25342.95984274  .00000137  00000+0  30438-3 0  9997
2 55826  87.9192 312.4251 0001115  84.4857 275.6404 13.20769465136041
ONEWEB-0667             
1 55827U 23029AH  25342.95354603  .00000130  00000+0  28899-3 0  9996
2 55827  87.9199 312.3588 0002009  84.8959 275.2403 13.20770801136031
ONEWEB-0669             
1 55828U 23029AJ  25342.94880778  .00000160  00000+0  36210-3 0  9992
2 55828  87.9188 312.3944 0001742 105.7858 254.3468 13.20770824136034
ONEWEB-0670             
1 55829U 23029AK  25342.91783511 -.00000060  00000+0 -19679-3 0  9998
2 55829  87.8990 327.6632 0002141  92.4922 267.6453 13.14503168134437
ONEWEB-0671             
1 55830U 23029AL  25342.99080293 -.00000037  00000+0 -12561-3 0  9992
2 55830  87.9194 342.8247 0001945  88.1787 271.9569 13.19725797133815
ONEWEB-0672             
1 55831U 23029AM  25342.94406007  .00000019  00000+0  14438-4 0  9997
2 55831  87.9196 312.3760 0001589  87.1345 272.9970 13.20770386136033
ONEWEB-0673             
1 55832U 23029AN  25342.96791907  .00003895  00000+0  96957-2 0  9995
2 55832  87.9208 342.8090 0001900  88.3389 271.7961 13.19700788133817
